LEO 1 (LEO VANTAGE 1)   
1 43113U 18004C   26068.70632107  .00005709  00000+0  39603-3 0  9997
2 43113  99.2469 334.0284 0352942  24.8540 336.9207 14.67184901422891
STARLINK-4424           
1 53681U 22105AK  26068.65978250  .00000306  00000+0  28372-4 0  9991
2 53681  97.6020 310.1899 0001797  58.5581 301.5819 15.01262800193236
